[
  {
    "OBJECT_NAME": "STARLINK-31636",
    "OBJECT_ID": "24090T",
    "EPOCH": "2025-11-11T05:15:47.344608",
    "MEAN_MOTION": 15.2758348,
    "ECCENTRICITY": 5.03e-05,
    "INCLINATION": 43.0019,
    "RA_OF_ASC_NODE": 132.3827,
    "ARG_OF_PERICENTER": 344.8733,
    "MEAN_ANOMALY": 15.2103,
    "EPHEMERIS_TYPE": 0,
    "CLASSIFICATION_TYPE": "U",
    "NORAD_CAT_ID": 59747,
    "ELEMENT_SET_NO": 999,
    "REV_AT_EPOCH": 8532,
    "BSTAR": 3.8531e-05,
    "MEAN_MOTION_DOT": 7.99e-06,
    "MEAN_MOTION_DDOT": 0.0,
    "TLE_LINE1": "1 59747U 24090T   25315.21929797  .00000799  00000+0  38531-4 0  9997",
    "TLE_LINE2": "2 59747  43.0019 132.3827 0000503 344.8733  15.2103 15.27583480 85320",
    "COMMENT": "Grouped by shell and plane from TLE"
  },
  {
    "OBJECT_NAME": "STARLINK-31640",
    "OBJECT_ID": "24090U",
    "EPOCH": "2025-11-10T12:24:07.706304",
    "MEAN_MOTION": 15.27581216,
    "ECCENTRICITY": 0.0001226,
    "INCLINATION": 43.0013,
    "RA_OF_ASC_NODE": 136.5589,
    "ARG_OF_PERICENTER": 264.23,
    "MEAN_ANOMALY": 95.8412,
    "EPHEMERIS_TYPE": 0,
    "CLASSIFICATION_TYPE": "U",
    "NORAD_CAT_ID": 59748,
    "ELEMENT_SET_NO": 999,
    "REV_AT_EPOCH": 8521,
    "BSTAR": 5.695e-05,
    "MEAN_MOTION_DOT": 1.305e-05,
    "MEAN_MOTION_DDOT": 0.0,
    "TLE_LINE1": "1 59748U 24090U   25314.51675586  .00001305  00000+0  56950-4 0  9993",
    "TLE_LINE2": "2 59748  43.0013 136.5589 0001226 264.2300  95.8412 15.27581216 85214",
    "COMMENT": "Grouped by shell and plane from TLE"
  },
  {
    "OBJECT_NAME": "STARLINK-31677",
    "OBJECT_ID": "24090V",
    "EPOCH": "2025-11-11T04:29:44.133504",
    "MEAN_MOTION": 15.27583796,
    "ECCENTRICITY": 0.0001275,
    "INCLINATION": 42.9997,
    "RA_OF_ASC_NODE": 132.9963,
    "ARG_OF_PERICENTER": 272.9718,
    "MEAN_ANOMALY": 87.0987,
    "EPHEMERIS_TYPE": 0,
    "CLASSIFICATION_TYPE": "U",
    "NORAD_CAT_ID": 59749,
    "ELEMENT_SET_NO": 999,
    "REV_AT_EPOCH": 8530,
    "BSTAR": 6.975900000000001e-05,
    "MEAN_MOTION_DOT": 1.658e-05,
    "MEAN_MOTION_DDOT": 0.0,
    "TLE_LINE1": "1 59749U 24090V   25315.18731636  .00001658  00000+0  69759-4 0  9999",
    "TLE_LINE2": "2 59749  42.9997 132.9963 0001275 272.9718  87.0987 15.27583796 85308",
    "COMMENT": "Grouped by shell and plane from TLE"
  },
  {
    "OBJECT_NAME": "STARLINK-31783",
    "OBJECT_ID": "24090W",
    "EPOCH": "2025-11-10T20:50:03.427872",
    "MEAN_MOTION": 15.27583795,
    "ECCENTRICITY": 0.0001028,
    "INCLINATION": 43.0014,
    "RA_OF_ASC_NODE": 134.9043,
    "ARG_OF_PERICENTER": 269.6083,
    "MEAN_ANOMALY": 90.4651,
    "EPHEMERIS_TYPE": 0,
    "CLASSIFICATION_TYPE": "U",
    "NORAD_CAT_ID": 59750,
    "ELEMENT_SET_NO": 999,
    "REV_AT_EPOCH": 8525,
    "BSTAR": 7.1567e-05,
    "MEAN_MOTION_DOT": 1.708e-05,
    "MEAN_MOTION_DDOT": 0.0,
    "TLE_LINE1": "1 59750U 24090W   25314.86809523  .00001708  00000+0  71567-4 0  9992",
    "TLE_LINE2": "2 59750  43.0014 134.9043 0001028 269.6083  90.4651 15.27583795 85256",
    "COMMENT": "Grouped by shell and plane from TLE"
  },
  {
    "OBJECT_NAME": "STARLINK-31808",
    "OBJECT_ID": "24090X",
    "EPOCH": "2025-11-10T13:08:20.181984",
    "MEAN_MOTION": 15.27569105,
    "ECCENTRICITY": 8.79e-05,
    "INCLINATION": 43.0028,
    "RA_OF_ASC_NODE": 135.9371,
    "ARG_OF_PERICENTER": 224.3359,
    "MEAN_ANOMALY": 135.7422,
    "EPHEMERIS_TYPE": 0,
    "CLASSIFICATION_TYPE": "U",
    "NORAD_CAT_ID": 59751,
    "ELEMENT_SET_NO": 999,
    "REV_AT_EPOCH": 8521,
    "BSTAR": 0.0,
    "MEAN_MOTION_DOT": -4.03e-06,
    "MEAN_MOTION_DDOT": 0.0,
    "TLE_LINE1": "1 59751U 24090X   25314.54745581 -.00000403  00000+0 -51352-5 0  9995",
    "TLE_LINE2": "2 59751  43.0028 135.9371 0000879 224.3359 135.7422 15.27569105 85218",
    "COMMENT": "Grouped by shell and plane from TLE"
  },
  {
    "OBJECT_NAME": "STARLINK-31822",
    "OBJECT_ID": "24090Y",
    "EPOCH": "2025-11-11T05:21:19.689984",
    "MEAN_MOTION": 15.27605765,
    "ECCENTRICITY": 0.0001266,
    "INCLINATION": 43.003,
    "RA_OF_ASC_NODE": 132.4088,
    "ARG_OF_PERICENTER": 285.5437,
    "MEAN_ANOMALY": 74.5274,
    "EPHEMERIS_TYPE": 0,
    "CLASSIFICATION_TYPE": "U",
    "NORAD_CAT_ID": 59752,
    "ELEMENT_SET_NO": 999,
    "REV_AT_EPOCH": 8531,
    "BSTAR": 0.0,
    "MEAN_MOTION_DOT": -3.016e-05,
    "MEAN_MOTION_DDOT": 0.0,
    "TLE_LINE1": "1 59752U 24090Y   25315.22314456 -.00003016  00000+0 -10003-3 0  9994",
    "TLE_LINE2": "2 59752  43.0030 132.4088 0001266 285.5437  74.5274 15.27605765 85315",
    "COMMENT": "Grouped by shell and plane from TLE"
  },
  {
    "OBJECT_NAME": "STARLINK-32021",
    "OBJECT_ID": "24120P",
    "EPOCH": "2025-11-11T05:50:52.593792",
    "MEAN_MOTION": 15.30220638,
    "ECCENTRICITY": 0.0002024,
    "INCLINATION": 53.1592,
    "RA_OF_ASC_NODE": 139.9946,
    "ARG_OF_PERICENTER": 80.726,
    "MEAN_ANOMALY": 279.397,
    "EPHEMERIS_TYPE": 0,
    "CLASSIFICATION_TYPE": "U",
    "NORAD_CAT_ID": 60148,
    "ELEMENT_SET_NO": 999,
    "REV_AT_EPOCH": 7846,
    "BSTAR": 0.0,
    "MEAN_MOTION_DOT": -4.934e-05,
    "MEAN_MOTION_DDOT": 0.0,
    "TLE_LINE1": "1 60148U 24120P   25315.24366428 -.00004934  00000+0 -15443-3 0  9990",
    "TLE_LINE2": "2 60148  53.1592 139.9946 0002024  80.7260 279.3970 15.30220638 78460",
    "COMMENT": "Grouped by shell and plane from TLE"
  },
  {
    "OBJECT_NAME": "STARLINK-32198",
    "OBJECT_ID": "24133W",
    "EPOCH": "2025-11-10T12:20:21.059232",
    "MEAN_MOTION": 15.30203353,
    "ECCENTRICITY": 9.32e-05,
    "INCLINATION": 53.1563,
    "RA_OF_ASC_NODE": 130.6417,
    "ARG_OF_PERICENTER": 65.0287,
    "MEAN_ANOMALY": 295.0811,
    "EPHEMERIS_TYPE": 0,
    "CLASSIFICATION_TYPE": "U",
    "NORAD_CAT_ID": 60321,
    "ELEMENT_SET_NO": 999,
    "REV_AT_EPOCH": 7348,
    "BSTAR": 0.0,
    "MEAN_MOTION_DOT": -1.407e-05,
    "MEAN_MOTION_DDOT": 0.0,
    "TLE_LINE1": "1 60321U 24133W   25314.51413263 -.00001407  00000+0 -35403-4 0  9997",
    "TLE_LINE2": "2 60321  53.1563 130.6417 0000932  65.0287 295.0811 15.30203353 73484",
    "COMMENT": "Grouped by shell and plane from TLE"
  },
  {
    "OBJECT_NAME": "STARLINK-32285",
    "OBJECT_ID": "24138A",
    "EPOCH": "2025-11-11T05:12:50.350752",
    "MEAN_MOTION": 15.30190891,
    "ECCENTRICITY": 0.0001581,
    "INCLINATION": 53.1576,
    "RA_OF_ASC_NODE": 139.5662,
    "ARG_OF_PERICENTER": 81.0067,
    "MEAN_ANOMALY": 279.1113,
    "EPHEMERIS_TYPE": 0,
    "CLASSIFICATION_TYPE": "U",
    "NORAD_CAT_ID": 60355,
    "ELEMENT_SET_NO": 999,
    "REV_AT_EPOCH": 7249,
    "BSTAR": 0.00018964,
    "MEAN_MOTION_DOT": 5.26e-05,
    "MEAN_MOTION_DDOT": 0.0,
    "TLE_LINE1": "1 60355U 24138A   25315.21724943  .00005260  00000+0  18964-3 0  9998",
    "TLE_LINE2": "2 60355  53.1576 139.5662 0001581  81.0067 279.1113 15.30190891 72490",
    "COMMENT": "Grouped by shell and plane from TLE"
  },
  {
    "OBJECT_NAME": "STARLINK-32275",
    "OBJECT_ID": "24138F",
    "EPOCH": "2025-11-11T05:58:25.747104",
    "MEAN_MOTION": 15.30195006,
    "ECCENTRICITY": 0.0001421,
    "INCLINATION": 53.1569,
    "RA_OF_ASC_NODE": 139.7604,
    "ARG_OF_PERICENTER": 86.2546,
    "MEAN_ANOMALY": 273.8618,
    "EPHEMERIS_TYPE": 0,
    "CLASSIFICATION_TYPE": "U",
    "NORAD_CAT_ID": 60360,
    "ELEMENT_SET_NO": 999,
    "REV_AT_EPOCH": 7249,
    "BSTAR": 4.3321e-05,
    "MEAN_MOTION_DOT": 9.24e-06,
    "MEAN_MOTION_DDOT": 0.0,
    "TLE_LINE1": "1 60360U 24138F   25315.24890911  .00000924  00000+0  43321-4 0  9994",
    "TLE_LINE2": "2 60360  53.1569 139.7604 0001421  86.2546 273.8618 15.30195006 72492",
    "COMMENT": "Grouped by shell and plane from TLE"
  },
  {
    "OBJECT_NAME": "STARLINK-32188",
    "OBJECT_ID": "24138L",
    "EPOCH": "2025-11-11T06:02:59.237664",
    "MEAN_MOTION": 15.30199719,
    "ECCENTRICITY": 0.0001426,
    "INCLINATION": 53.1618,
    "RA_OF_ASC_NODE": 139.7791,
    "ARG_OF_PERICENTER": 80.7215,
    "MEAN_ANOMALY": 279.3947,
    "EPHEMERIS_TYPE": 0,
    "CLASSIFICATION_TYPE": "U",
    "NORAD_CAT_ID": 60365,
    "ELEMENT_SET_NO": 999,
    "REV_AT_EPOCH": 7249,
    "BSTAR": 2.4849e-05,
    "MEAN_MOTION_DOT": 3.77e-06,
    "MEAN_MOTION_DDOT": 0.0,
    "TLE_LINE1": "1 60365U 24138L   25315.25207451  .00000377  00000+0  24849-4 0  9997",
    "TLE_LINE2": "2 60365  53.1618 139.7791 0001426  80.7215 279.3947 15.30199719 72497",
    "COMMENT": "Grouped by shell and plane from TLE"
  },
  {
    "OBJECT_NAME": "STARLINK-32263",
    "OBJECT_ID": "24138S",
    "EPOCH": "2025-11-11T05:17:23.637408",
    "MEAN_MOTION": 15.30213874,
    "ECCENTRICITY": 7.22e-05,
    "INCLINATION": 53.1627,
    "RA_OF_ASC_NODE": 139.583,
    "ARG_OF_PERICENTER": 116.9704,
    "MEAN_ANOMALY": 243.1371,
    "EPHEMERIS_TYPE": 0,
    "CLASSIFICATION_TYPE": "U",
    "NORAD_CAT_ID": 60371,
    "ELEMENT_SET_NO": 999,
    "REV_AT_EPOCH": 7239,
    "BSTAR": 0.00011756,
    "MEAN_MOTION_DOT": 3.126e-05,
    "MEAN_MOTION_DDOT": 0.0,
    "TLE_LINE1": "1 60371U 24138S   25315.22041247  .00003126  00000+0  11756-3 0  9997",
    "TLE_LINE2": "2 60371  53.1627 139.5830 0000722 116.9704 243.1371 15.30213874 72397",
    "COMMENT": "Grouped by shell and plane from TLE"
  },
  {
    "OBJECT_NAME": "STARLINK-32269",
    "OBJECT_ID": "24138Y",
    "EPOCH": "2025-11-11T05:56:54.364416",
    "MEAN_MOTION": 15.30197629,
    "ECCENTRICITY": 0.0001375,
    "INCLINATION": 53.157,
    "RA_OF_ASC_NODE": 139.75,
    "ARG_OF_PERICENTER": 85.7946,
    "MEAN_ANOMALY": 274.3212,
    "EPHEMERIS_TYPE": 0,
    "CLASSIFICATION_TYPE": "U",
    "NORAD_CAT_ID": 60377,
    "ELEMENT_SET_NO": 999,
    "REV_AT_EPOCH": 7249,
    "BSTAR": 3.0841000000000005e-05,
    "MEAN_MOTION_DOT": 5.54e-06,
    "MEAN_MOTION_DDOT": 0.0,
    "TLE_LINE1": "1 60377U 24138Y   25315.24785144  .00000554  00000+0  30841-4 0  9995",
    "TLE_LINE2": "2 60377  53.1570 139.7500 0001375  85.7946 274.3212 15.30197629 72492",
    "COMMENT": "Grouped by shell and plane from TLE"
  }
]